$$SOE
2460154.500000000, A.D. 2023-Jul-29 00:00:00.0000, -8.162854469762711E+07, 2.580308269180398E+08, -1.083512923623811E+08,
2460161.500000000, A.D. 2023-Aug-05 00:00:00.0000, -9.407992821278426E+07, 2.551133728319993E+08, -1.077253856881086E+08,
2460168.500000000, A.D. 2023-Aug-12 00:00:00.0000, -1.063488228951568E+08, 2.517009401122277E+08, -1.068904620772808E+08,
2460175.500000000, A.D. 2023-Aug-19 00:00:00.0000, -1.184134030023973E+08, 2.478048205055588E+08, -1.058501261986565E+08,
2460182.500000000, A.D. 2023-Aug-26 00:00:00.0000, -1.302526278739111E+08, 2.434369758545681E+08, -1.046082899847545E+08,
2460189.500000000, A.D. 2023-Sep-02 00:00:00.0000, -1.418462502427278E+08, 2.386099908212275E+08, -1.031691538089940E+08,
2460196.500000000, A.D. 2023-Sep-09 00:00:00.0000, -1.531748216940383E+08, 2.333370274358633E+08, -1.015371883327785E+08,
2460203.500000000, A.D. 2023-Sep-16 00:00:00.0000, -1.642196954037401E+08, 2.276317814774936E+08, -9.971711708201861E+07,
2460210.500000000, A.D. 2023-Sep-23 00:00:00.0000, -1.749630260298050E+08, 2.215084410105510E+08, -9.771389979601696E+07,
2460217.500000000, A.D. 2023-Sep-30 00:00:00.0000, -1.853877673733129E+08, 2.149816482845572E+08, -9.553271643981628E+07,
2460224.500000000, A.D. 2023-Oct-07 00:00:00.0000, -1.954776704269150E+08, 2.080664644546510E+08, -9.317895172344129E+07,
2460231.500000000, A.D. 2023-Oct-14 00:00:00.0000, -2.052172810101256E+08, 2.007783337952093E+08, -9.065818049766511E+07,
2460238.500000000, A.D. 2023-Oct-21 00:00:00.0000, -2.145919339845907E+08, 1.931330489663011E+08, -8.797615417787442E+07,
2460245.500000000, A.D. 2023-Oct-28 00:00:00.0000, -2.235877456953190E+08, 1.851467195393184E+08, -8.513878787163329E+07,
2460252.500000000, A.D. 2023-Nov-04 00:00:00.0000, -2.321916060907066E+08, 1.768357429591892E+08, -8.215214815046106E+07,
2460259.500000000, A.D. 2023-Nov-11 00:00:00.0000, -2.403911705245622E+08, 1.682167772791505E+08, -7.902244151279241E+07,
2460266.500000000, A.D. 2023-Nov-18 00:00:00.0000, -2.481748511885770E+08, 1.593067155288770E+08, -7.575600354037565E+07,
2460273.500000000, A.D. 2023-Nov-25 00:00:00.0000, -2.555318082582483E+08, 1.501226616591397E+08, -7.235928872844225E+07,
2460280.500000000, A.D. 2023-Dec-02 00:00:00.0000, -2.624519408659841E+08, 1.406819079707060E+08, -6.883886096651116E+07,
2460287.500000000, A.D. 2023-Dec-09 00:00:00.0000, -2.689258779491765E+08, 1.310019138863581E+08, -6.520138465098852E+07,
2460294.500000000, A.D. 2023-Dec-16 00:00:00.0000, -2.749449687927021E+08, 1.211002859925586E+08, -6.145361641778857E+07,
2460301.500000000, A.D. 2023-Dec-23 00:00:00.0000, -2.805012730075036E+08, 1.109947599423401E+08, -5.760239742814311E+07,
2460308.500000000, A.D. 2023-Dec-30 00:00:00.0000, -2.855875513690603E+08, 1.007031851603661E+08, -5.365464595800310E+07,
2460315.500000000, A.D. 2024-Jan-06 00:00:00.0000, -2.901972593784656E+08, 9.024350988014145E+07, -4.961735029133132E+07,
2460322.500000000, A.D. 2024-Jan-13 00:00:00.0000, -2.943245404617956E+08, 7.963376461304617E+07, -4.549756233257006E+07,
2460329.500000000, A.D. 2024-Jan-20 00:00:00.0000, -2.979642176505830E+08, 6.889204704756184E+07, -4.130239176807503E+07,
2460336.500000000, A.D. 2024-Jan-27 00:00:00.0000, -3.011117858286004E+08, 5.803650893861382E+07, -3.703900050307667E+07,
2460343.500000000, A.D. 2024-Feb-03 00:00:00.0000, -3.037634050280732E+08, 4.708534394932810E+07, -3.271459737918995E+07,
2460350.500000000, A.D. 2024-Feb-10 00:00:00.0000, -3.059158945402688E+08, 3.605677606701474E+07, -2.833643318501421E+07,
2460357.500000000, A.D. 2024-Feb-17 00:00:00.0000, -3.075667277336764E+08, 2.496904850984652E+07, -2.391179593331530E+07,
2460364.500000000, A.D. 2024-Feb-24 00:00:00.0000, -3.087140275715652E+08, 1.384041304555470E+07, -1.944800636933475E+07,
2460371.500000000, A.D. 2024-Mar-02 00:00:00.0000, -3.093565628242804E+08, 2.689119597692852E+06, -1.495241367899202E+07,
2460378.500000000, A.D. 2024-Mar-09 00:00:00.0000, -3.094937448579117E+08, -8.466594012099817E+06, -1.043239137818000E+07,
2460385.500000000, A.D. 2024-Mar-16 00:00:00.0000, -3.091256246176735E+08, -1.960851207334955E+07, -5.895333365790696E+06,
2460392.500000000, A.D. 2024-Mar-23 00:00:00.0000, -3.082528899127949E+08, -3.071844972024293E+07, -1.348650002188198E+06,
2460399.500000000, A.D. 2024-Mar-30 00:00:00.0000, -3.068768652362545E+08, -4.177826049915508E+07, 3.200236027376208E+06,
2460406.500000000, A.D. 2024-Apr-06 00:00:00.0000, -3.049995138517748E+08, -5.276984622595052E+07, 7.743893799899025E+06,
2460413.500000000, A.D. 2024-Apr-13 00:00:00.0000, -3.026234385843189E+08, -6.367516838673095E+07, 1.227488796707557E+07,
2460420.500000000, A.D. 2024-Apr-20 00:00:00.0000, -2.997518822464027E+08, -7.447625849628659E+07, 1.678578263088056E+07,
2460427.500000000, A.D. 2024-Apr-27 00:00:00.0000, -2.963887291970018E+08, -8.515522807204928E+07, 2.126914540695271E+07,
2460434.500000000, A.D. 2024-May-04 00:00:00.0000, -2.925385079349430E+08, -9.569427902331956E+07, 2.571755164349170E+07,
2460441.500000000, A.D. 2024-May-11 00:00:00.0000, -2.882063944781937E+08, -1.060757146436757E+08, 3.012358880307753E+07,
2460448.500000000, A.D. 2024-May-18 00:00:00.0000, -2.833982164224085E+08, -1.162819512639388E+08, 3.447986104179446E+07,
2460455.500000000, A.D. 2024-May-25 00:00:00.0000, -2.781204576146773E+08, -1.262955306524342E+08, 3.877899402267727E+07,
2460462.500000000, A.D. 2024-Jun-01 00:00:00.0000, -2.723802633337661E+08, -1.360991333025526E+08, 4.301363999212427E+07,
2460469.500000000, A.D. 2024-Jun-08 00:00:00.0000, -2.661854456748009E+08, -1.456755927151671E+08, 4.717648313293476E+07,
2460476.500000000, A.D. 2024-Jun-15 00:00:00.0000, -2.595444886765171E+08, -1.550079102158923E+08, 5.126024523961900E+07,
2460483.500000000, A.D. 2024-Jun-22 00:00:00.0000, -2.524665541256709E+08, -1.640792692166510E+08, 5.525769194134724E+07,
2460490.500000000, A.D. 2024-Jun-29 00:00:00.0000, -2.449614900815681E+08, -1.728730508283680E+08, 5.916163955496486E+07,
2460497.500000000, A.D. 2024-Jul-06 00:00:00.0000, -2.370398393932866E+08, -1.813728533847392E+08, 6.296496216160046E+07,
2460504.500000000, A.D. 2024-Jul-13 00:00:00.0000, -2.287128461721320E+08, -1.895625131383386E+08, 6.666059899874546E+07,
2460511.500000000, A.D. 2024-Jul-20 00:00:00.0000, -2.199924621031555E+08, -1.974261250577626E+08, 7.024156248232161E+07,
2460518.500000000, A.D. 2024-Jul-27 00:00:00.0000, -2.108913531341245E+08, -2.049480647586096E+08, 7.370094687540229E+07,
2460525.500000000, A.D. 2024-Aug-03 00:00:00.0000, -2.014229061390634E+08, -2.121130120185719E+08, 7.703193758088413E+07,
2460532.500000000, A.D. 2024-Aug-10 00:00:00.0000, -1.916012352532320E+08, -2.189059759572991E+08, 8.022782107724068E+07,
2460539.500000000, A.D. 2024-Aug-17 00:00:00.0000, -1.814411876861005E+08, -2.253123219291142E+08, 8.328199553083877E+07,
2460546.500000000, A.D. 2024-Aug-24 00:00:00.0000, -1.709583488251515E+08, -2.313178002113771E+08, 8.618798211505133E+07,
2460553.500000000, A.D. 2024-Aug-31 00:00:00.0000, -1.601690463418739E+08, -2.369085766014444E+08, 8.893943705281805E+07,
2460560.500000000, A.D. 2024-Sep-07 00:00:00.0000, -1.490903527492800E+08, -2.420712648354754E+08, 9.153016438840443E+07,
2460567.500000000, A.D. 2024-Sep-14 00:00:00.0000, -1.377400861273708E+08, -2.467929598558738E+08, 9.395412958351077E+07,
2460574.500000000, A.D. 2024-Sep-21 00:00:00.0000, -1.261368108284216E+08, -2.510612715185541E+08, 9.620547416613913E+07,
2460581.500000000, A.D. 2024-Sep-28 00:00:00.0000, -1.142998384092231E+08, -2.548643619607469E+08, 9.827853120984854E+07,
2460588.500000000, A.D. 2024-Oct-05 00:00:00.0000, -1.022492248624275E+08, -2.581909866194575E+08, 1.001678413029169E+08,
2460595.500000000, A.D. 2024-Oct-12 00:00:00.0000, -9.000576424183030E+07, -2.610305359032241E+08, 1.018681692857019E+08,
2460602.500000000, A.D. 2024-Oct-19 00:00:00.0000, -7.759098016346224E+07, -2.633730777464711E+08, 1.033745218963841E+08,
2460609.500000000, A.D. 2024-Oct-26 00:00:00.0000, -6.502711494094064E+07, -2.652094017730550E+08, 1.046821662539195E+08,
2460616.500000000, A.D. 2024-Nov-02 00:00:00.0000, -5.233711581359892E+07, -2.665310651080410E+08, 1.057866491159904E+08,
2460623.500000000, A.D. 2024-Nov-09 00:00:00.0000, -3.954461787374166E+07, -2.673304396769661E+08, 1.066838168610013E+08,
2460630.500000000, A.D. 2024-Nov-16 00:00:00.0000, -2.667392336140023E+07, -2.676007608235570E+08, 1.073698361354987E+08,
2460637.500000000, A.D. 2024-Nov-23 00:00:00.0000, -1.374997697267668E+07, -2.673361770947597E+08, 1.078412150908918E+08,
2460644.500000000, A.D. 2024-Nov-30 00:00:00.0000, -7.983366698645740E+05, -2.665318009976930E+08, 1.080948251045568E+08,
2460651.500000000, A.D. 2024-Dec-07 00:00:00.0000, 1.215486072288213E+07, -2.651837600304735E+08, 1.081279228821478E+08,
2460658.500000000, A.D. 2024-Dec-14 00:00:00.0000, 2.508293873488134E+07, -2.632892464441307E+08, 1.079381729873471E+08,
2460665.500000000, A.D. 2024-Dec-21 00:00:00.0000, 3.795872322527128E+07, -2.608465666131080E+08, 1.075236707733894E+08,
2460672.500000000, A.D. 2024-Dec-28 00:00:00.0000, 5.075458934103882E+07, -2.578551925748594E+08, 1.068829651370316E+08,
2460679.500000000, A.D. 2025-Jan-04 00:00:00.0000, 6.344251627332616E+07, -2.543158129157981E+08, 1.060150808799092E+08,
2460686.500000000, A.D. 2025-Jan-11 00:00:00.0000, 7.599414817079483E+07, -2.502303808550055E+08, 1.049195407913750E+08,
2460693.500000000, A.D. 2025-Jan-18 00:00:00.0000, 8.838086042753072E+07, -2.456021599121889E+08, 1.035963872529071E+08,
2460700.500000000, A.D. 2025-Jan-25 00:00:00.0000, 1.005738316709602E+08, -2.404357670623921E+08, 1.020462030751907E+08,
2460707.500000000, A.D. 2025-Feb-01 00:00:00.0000, 1.125441216599638E+08, -2.347372128004599E+08, 1.002701313030639E+08,
2460714.500000000, A.D. 2025-Feb-08 00:00:00.0000, 1.242627551020776E+08, -2.285139374578505E+08, 9.826989372294980E+07,
$$EOE